{"type": "FeatureCollection", "features": [ {"type": "Feature", "properties": {"norad_id": 41549, "name": "GSAT0211 (GALILEO 14)", "group": "gnss", "lat": -41.83751816608111, "lon": -171.6010312773315, "alt_km": 23222.93742932375, "timestamp": "2025-12-08T15:42:50.033426+00:00", "meta": {"OBJECT_NAME": "GSAT0211 (GALILEO 14)", "OBJECT_ID": "2016-030A", "EPOCH": "2025-12-07T13:40:58.264320", "MEAN_MOTION": 1.70472997, "ECCENTRICITY": 0.00040128, "INCLINATION": 55.154, "RA_OF_ASC_NODE": 226.9659, "ARG_OF_PERICENTER": 14.4678, "MEAN_ANOMALY": 345.6377, "EPHEMERIS_TYPE": 0, "CLASSIFICATION_TYPE": "U", "NORAD_CAT_ID": 41549, "ELEMENT_SET_NO": 999, "REV_AT_EPOCH": 5940, "BSTAR": 0, "MEAN_MOTION_DOT": 2.3e-07, "MEAN_MOTION_DDOT": 0}, "tle": {"line1": "1 41549U 16030A   25341.57011880  .00000023  00000+0  00000+0 0  9991", "line2": "2 41549  55.1540 226.9659 0004012  14.4678 345.6377  1.70472997 59400"}}, "geometry": {"type": "Point", "coordinates": [-171.6010312773315, -41.83751816608111]}}, {"type": "Feature", "properties": {"norad_id": 41550, "name": "GSAT0210 (GALILEO 13)", "group": "gnss", "lat": 26.010122681435817, "lon": 27.088606664923038, "alt_km": 23219.483818864854, "timestamp": "2025-12-08T15:42:50.033441+00:00", "meta": {"OBJECT_NAME": "GSAT0210 (GALILEO 13)", "OBJECT_ID": "2016-030B", "EPOCH": "2025-12-07T19:51:37.971648", "MEAN_MOTION": 1.70473554, "ECCENTRICITY": 0.00013454, "INCLINATION": 55.1532, "RA_OF_ASC_NODE": 226.9569, "ARG_OF_PERICENTER": 243.5769, "MEAN_ANOMALY": 116.5022, "EPHEMERIS_TYPE": 0, "CLASSIFICATION_TYPE": "U", "NORAD_CAT_ID": 41550, "ELEMENT_SET_NO": 999, "REV_AT_EPOCH": 5940, "BSTAR": 0, "MEAN_MOTION_DOT": 2.1e-07, "MEAN_MOTION_DDOT": 0}, "tle": {"line1": "1 41550U 16030B   25341.82752282  .00000021  00000+0  00000+0 0  9997", "line2": "2 41550  55.1532 226.9569 0001345 243.5769 116.5022  1.70473554 59407"}}, "geometry": {"type": "Point", "coordinates": [27.088606664923038, 26.010122681435817]}}, {"type": "Feature", "properties": {"norad_id": 41586, "name": "BEIDOU-2 G7 (C03)", "group": "gnss", "lat": -0.09793693987661772, "lon": 63.833560512087104, "alt_km": 35768.081841683634, "timestamp": "2025-12-08T15:42:50.033453+00:00", "meta": {"OBJECT_NAME": "BEIDOU-2 G7 (C03)", "OBJECT_ID": "2016-037A", "EPOCH": "2025-12-08T07:16:51.079872", "MEAN_MOTION": 1.00269333, "ECCENTRICITY": 0.00044434, "INCLINATION": 1.7461, "RA_OF_ASC_NODE": 67.7601, "ARG_OF_PERICENTER": 0.4598, "MEAN_ANOMALY": 228.7804, "EPHEMERIS_TYPE": 0, "CLASSIFICATION_TYPE": "U", "NORAD_CAT_ID": 41586, "ELEMENT_SET_NO": 999, "REV_AT_EPOCH": 497, "BSTAR": 0, "MEAN_MOTION_DOT": -3.51e-06, "MEAN_MOTION_DDOT": 0}, "tle": {"line1": "1 41586U 16037A   25342.30336898 -.00000351  00000+0  00000+0 0  9995", "line2": "2 41586   1.7461  67.7601 0004443   0.4598 228.7804  1.00269333  4971"}}, "geometry": {"type": "Point", "coordinates": [63.833560512087104, -0.09793693987661772]}}, {"type": "Feature", "properties": {"norad_id": 41589, "name": "EUTELSAT 117 WEST B (WAAS/PRN 131)", "group": "gnss", "lat": 0.009684326284683837, "lon": -163.63407236211802, "alt_km": 35787.39883929774, "timestamp": "2025-12-08T15:42:50.033467+00:00", "meta": {"OBJECT_NAME": "EUTELSAT 117 WEST B (WAAS/PRN 131)", "OBJECT_ID": "2016-038B", "EPOCH": "2025-12-08T05:51:27.089856", "MEAN_MOTION": 1.00271014, "ECCENTRICITY": 3.727e-05, "INCLINATION": 0.0062, "RA_OF_ASC_NODE": 152.2728, "ARG_OF_PERICENTER": 268.7532, "MEAN_ANOMALY": 347.0922, "EPHEMERIS_TYPE": 0, "CLASSIFICATION_TYPE": "U", "NORAD_CAT_ID": 41589, "ELEMENT_SET_NO": 999, "REV_AT_EPOCH": 3474, "BSTAR": 0, "MEAN_MOTION_DOT": -9e-08, "MEAN_MOTION_DDOT": 0}, "tle": {"line1": "1 41589U 16038B   25342.24406354 -.00000009  00000+0  00000+0 0  9997", "line2": "2 41589   0.0062 152.2728 0000372 268.7532 347.0922  1.00271014 34740"}}, "geometry": {"type": "Point", "coordinates": [-163.63407236211802, 0.009684326284683837]}}, {"type": "Feature", "properties": {"norad_id": 41859, "name": "GSAT0207 (GALILEO 15)", "group": "gnss", "lat": -18.84036021656826, "lon": 92.73224210346103, "alt_km": 23218.473647916657, "timestamp": "2025-12-08T15:42:50.033479+00:00", "meta": {"OBJECT_NAME": "GSAT0207 (GALILEO 15)", "OBJECT_ID": "2016-069A", "EPOCH": "2025-12-06T22:22:57.829728", "MEAN_MOTION": 1.70474256, "ECCENTRICITY": 0.00021753, "INCLINATION": 55.3787, "RA_OF_ASC_NODE": 106.4111, "ARG_OF_PERICENTER": 324.2379, "MEAN_ANOMALY": 35.7022, "EPHEMERIS_TYPE": 0, "CLASSIFICATION_TYPE": "U", "NORAD_CAT_ID": 41859, "ELEMENT_SET_NO": 999, "REV_AT_EPOCH": 5612, "BSTAR": 0, "MEAN_MOTION_DOT": 7e-08, "MEAN_MOTION_DDOT": 0}, "tle": {"line1": "1 41859U 16069A   25340.93261377  .00000007  00000+0  00000+0 0  9996", "line2": "2 41859  55.3787 106.4111 0002175 324.2379  35.7022  1.70474256 56122"}}, "geometry": {"type": "Point", "coordinates": [92.73224210346103, -18.84036021656826]}}, {"type": "Feature", "properties": {"norad_id": 41860, "name": "GSAT0212 (GALILEO 16)", "group": "gnss", "lat": 49.1306784485851, "lon": 159.2527812952855, "alt_km": 23210.89693494415, "timestamp": "2025-12-08T15:42:50.033491+00:00", "meta": {"OBJECT_NAME": "GSAT0212 (GALILEO 16)", "OBJECT_ID": "2016-069B", "EPOCH": "2025-12-06T04:47:33.838080", "MEAN_MOTION": 1.70474471, "ECCENTRICITY": 0.00022225, "INCLINATION": 55.376, "RA_OF_ASC_NODE": 106.4267, "ARG_OF_PERICENTER": 32.4045, "MEAN_ANOMALY": 327.5613, "EPHEMERIS_TYPE": 0, "CLASSIFICATION_TYPE": "U", "NORAD_CAT_ID": 41860, "ELEMENT_SET_NO": 999, "REV_AT_EPOCH": 5636, "BSTAR": 0, "MEAN_MOTION_DOT": 6e-08, "MEAN_MOTION_DDOT": 0}, "tle": {"line1": "1 41860U 16069B   25340.19969720  .00000006  00000+0  00000+0 0  9992", "line2": "2 41860  55.3760 106.4267 0002222  32.4045 327.5613  1.70474471 56361"}}, "geometry": {"type": "Point", "coordinates": [159.2527812952855, 49.1306784485851]}}, {"type": "Feature", "properties": {"norad_id": 41861, "name": "GSAT0213 (GALILEO 17)", "group": "gnss", "lat": -17.255406899656517, "lon": -61.266597446419176, "alt_km": 23223.663957951405, "timestamp": "2025-12-08T15:42:50.033502+00:00", "meta": {"OBJECT_NAME": "GSAT0213 (GALILEO 17)", "OBJECT_ID": "2016-069C", "EPOCH": "2025-12-07T03:41:32.905248", "MEAN_MOTION": 1.70474767, "ECCENTRICITY": 0.00022126, "INCLINATION": 55.379, "RA_OF_ASC_NODE": 106.408, "ARG_OF_PERICENTER": 283.542, "MEAN_ANOMALY": 76.3889, "EPHEMERIS_TYPE": 0, "CLASSIFICATION_TYPE": "U", "NORAD_CAT_ID": 41861, "ELEMENT_SET_NO": 999, "REV_AT_EPOCH": 5624, "BSTAR": 0, "MEAN_MOTION_DOT": 7e-08, "MEAN_MOTION_DDOT": 0}, "tle": {"line1": "1 41861U 16069C   25341.15385307  .00000007  00000+0  00000+0 0  9994", "line2": "2 41861  55.3790 106.4080 0002212 283.5420  76.3889  1.70474767 56242"}}, "geometry": {"type": "Point", "coordinates": [-61.266597446419176, -17.255406899656517]}}, {"type": "Feature", "properties": {"norad_id": 41862, "name": "GSAT0214 (GALILEO 18)", "group": "gnss", "lat": 49.95238991714267, "lon": -128.84988856919824, "alt_km": 23219.818388450003, "timestamp": "2025-12-08T15:42:50.033513+00:00", "meta": {"OBJECT_NAME": "GSAT0214 (GALILEO 18)", "OBJECT_ID": "2016-069D", "EPOCH": "2025-12-07T07:11:47.189472", "MEAN_MOTION": 1.70474588, "ECCENTRICITY": 0.00012146, "INCLINATION": 55.3773, "RA_OF_ASC_NODE": 106.3967, "ARG_OF_PERICENTER": 290.4025, "MEAN_ANOMALY": 69.5406, "EPHEMERIS_TYPE": 0, "CLASSIFICATION_TYPE": "U", "NORAD_CAT_ID": 41862, "ELEMENT_SET_NO": 999, "REV_AT_EPOCH": 5637, "BSTAR": 0, "MEAN_MOTION_DOT": 7e-08, "MEAN_MOTION_DDOT": 0}, "tle": {"line1": "1 41862U 16069D   25341.29985173  .00000007  00000+0  00000+0 0  9997", "line2": "2 41862  55.3773 106.3967 0001214 290.4025  69.5406  1.70474588 56370"}}, "geometry": {"type": "Point", "coordinates": [-128.84988856919824, 49.95238991714267]}}, {"type": "Feature", "properties": {"norad_id": 42709, "name": "SES-15 (WAAS/PRN 133)", "group": "gnss", "lat": -0.013024304311881113, "lon": -175.82266955967248, "alt_km": 35788.02933202242, "timestamp": "2025-12-08T15:42:50.033527+00:00", "meta": {"OBJECT_NAME": "SES-15 (WAAS/PRN 133)", "OBJECT_ID": "2017-026A", "EPOCH": "2025-12-08T05:44:47.292864", "MEAN_MOTION": 1.00266538, "ECCENTRICITY": 5.142e-05, "INCLINATION": 0.0198, "RA_OF_ASC_NODE": 348.5244, "ARG_OF_PERICENTER": 299.3399, "MEAN_ANOMALY": 106.4104, "EPHEMERIS_TYPE": 0, "CLASSIFICATION_TYPE": "U", "NORAD_CAT_ID": 42709, "ELEMENT_SET_NO": 999, "REV_AT_EPOCH": 551, "BSTAR": 0, "MEAN_MOTION_DOT": 6.3e-07, "MEAN_MOTION_DDOT": 0}, "tle": {"line1": "1 42709U 17026A   25342.23943626  .00000063  00000+0  00000+0 0  9996", "line2": "2 42709   0.0198 348.5244 0000514 299.3399 106.4104  1.00266538  5514"}}, "geometry": {"type": "Point", "coordinates": [-175.82266955967248, -0.013024304311881113]}}, {"type": "Feature", "properties": {"norad_id": 42738, "name": "QZS-2 (QZSS/PRN 194)", "group": "gnss", "lat": -13.335424084105208, "lon": 82.52542886902486, "alt_km": 34403.75316939233, "timestamp": "2025-12-08T15:42:50.033539+00:00", "meta": {"OBJECT_NAME": "QZS-2 (QZSS/PRN 194)", "OBJECT_ID": "2017-028A", "EPOCH": "2025-12-07T14:16:11.320608", "MEAN_MOTION": 1.0028442, "ECCENTRICITY": 0.07584265, "INCLINATION": 39.7227, "RA_OF_ASC_NODE": 245.9588, "ARG_OF_PERICENTER": 269.4237, "MEAN_ANOMALY": 276.9001, "EPHEMERIS_TYPE": 0, "CLASSIFICATION_TYPE": "U", "NORAD_CAT_ID": 42738, "ELEMENT_SET_NO": 999, "REV_AT_EPOCH": 570, "BSTAR": 0, "MEAN_MOTION_DOT": -1.76e-06, "MEAN_MOTION_DDOT": 0}, "tle": {"line1": "1 42738U 17028A   25341.59457547 -.00000176  00000+0  00000+0 0  9996", "line2": "2 42738  39.7227 245.9588 0758426 269.4237 276.9001  1.00284420  5700"}}, "geometry": {"type": "Point", "coordinates": [82.52542886902486, -13.335424084105208]}}]}